NORAD_CAT_ID,OBJECT_NAME,OBJECT_TYPE,EPOCH,MEAN_MOTION,ECCENTRICITY,INCLINATION,RA_OF_ASC_NODE,ARG_OF_PERICENTER,MEAN_ANOMALY,BSTAR,MEAN_MOTION_DOT,MEAN_MOTION_DDOT,TLE_LINE0,TLE_LINE1,TLE_LINE2,SEMIMAJOR_AXIS,PERIOD,APOGEE,PERIGEE,DECAYED
52614.0,STARLINK-3982,PAYLOAD,2022-08-24 04:00:00,15.08823212,0.0001549,53.2134,315.9696,68.2016,342.3256,0.0025578,0.00040636,0.0,0 STARLINK-3982,1 52614U 22052S   22236.16667824  .00040636  00000-0  25578-2 0  9992,2 52614  53.2134 315.9696 0001549  68.2016 342.3256 15.08823212 16081,6917.932,95.439,540.868,538.725,0.0
52614.0,STARLINK-3982,PAYLOAD,2022-08-24 14:00:01,15.08831729,0.0001698,53.2137,314.1011,60.0407,94.9837,0.0013545,0.0002133,0.0,0 STARLINK-3982,1 52614U 22052S   22236.58334491  .00021330  00000-0  13545-2 0  9990,2 52614  53.2137 314.1011 0001698  60.0407  94.9837 15.08831729  1301,6917.906,95.438,540.945,538.596,0.0
52614.0,STARLINK-3982,PAYLOAD,2022-08-24 20:00:01,15.08862907,0.000164,53.2135,312.978,59.5682,14.147,-0.0017136,-0.00027474,0.0,0 STARLINK-3982,1 52614U 22052S   22236.83334491 -.00027474  00000-0 -17136-2 0  9995,2 52614  53.2135 312.9780 0001640  59.5682  14.1470 15.08862907 16184,6917.81,95.436,540.81,538.5409999999998,0.0
52614.0,STARLINK-3982,PAYLOAD,2022-08-24 22:00:00,15.08860132,0.0001588,53.2137,312.6034,62.2616,104.3571,-0.0015109,-0.00024267,0.0,0 STARLINK-3982,1 52614U 22052S   22236.91667824 -.00024267  00000-0 -15109-2 0  9998,2 52614  53.2137 312.6034 0001588  62.2616 104.3571 15.08860132  1304,6917.819,95.436,540.7819999999998,538.585,0.0
52614.0,STARLINK-3982,PAYLOAD,2022-08-25 14:00:01,15.088119400000002,0.0001634,53.2139,309.6119,56.3902,133.4114,0.001816,0.0002871,0.0,0 STARLINK-3982,1 52614U 22052S   22237.58334491  .00028710  00000-0  18160-2 0  9998,2 52614  53.2139 309.6119 0001634  56.3902 133.4114 15.08811940  1309,6917.965999999999,95.439,540.962,538.701,0.0
52614.0,STARLINK-3982,PAYLOAD,2022-08-25 18:00:00,15.08834057,0.0001588,53.2135,308.8633,54.8814,320.7028,-4.7477e-05,-1.043e-05,0.0,0 STARLINK-3982,1 52614U 22052S   22237.75001157 -.00001043  00000-0 -47477-4 0  9994,2 52614  53.2135 308.8633 0001588  54.8814 320.7028 15.08834057 16327,6917.899,95.438,540.862,538.665,0.0
52614.0,STARLINK-3982,PAYLOAD,2022-08-25 22:00:00,15.0884142,0.0001503,53.2139,308.1141,59.8539,141.5232,-0.0012901,-0.00020762,0.0,0 STARLINK-3982,1 52614U 22052S   22237.91667824 -.00020762  00000-0 -12901-2 0  9992,2 52614  53.2139 308.1141 0001503  59.8539 141.5232 15.08841420  1304,6917.876,95.437,540.781,538.701,0.0
52614.0,STARLINK-3982,PAYLOAD,2022-08-26 14:00:01,15.08819853,0.0001641999999999,53.2138,305.1227,55.5341,169.0924,0.0021285,0.00033731,0.0,0 STARLINK-3982,1 52614U 22052S   22238.58335648  .00033731  00000-0  21285-2 0  9995,2 52614  53.2138 305.1227 0001642  55.5341 169.0924 15.08819853  1301,6917.941999999999,95.439,540.943,538.6709999999998,0.0
52614.0,STARLINK-3982,PAYLOAD,2022-08-26 20:00:01,15.0885791,0.0001548,53.2135,303.9994,57.7861,85.4627,-0.0019942999999999,-0.00031903,0.0,0 STARLINK-3982,1 52614U 22052S   22238.83334491 -.00031903  00000-0 -19943-2 0  9997,2 52614  53.2135 303.9994 0001548  57.7861  85.4627 15.08857910 16483,6917.826,95.436,540.762,538.62,0.0
52614.0,STARLINK-3982,PAYLOAD,2022-08-26 22:00:00,15.08847945,0.0001486999999999,53.2137,303.6248,59.8953,176.2575,-0.00089364,-0.00014485,0.0,0 STARLINK-3982,1 52614U 22052S   22238.91667824 -.00014485  00000-0 -89364-3 0  9996,2 52614  53.2137 303.6248 0001487  59.8953 176.2575 15.08847945  1304,6917.856,95.437,540.75,538.692,0.0
52614.0,STARLINK-3982,PAYLOAD,2022-08-27 14:00:01,15.08830128,0.0001618,53.2134,300.6334,55.316,204.049,0.0024514,0.00038931,0.0,0 STARLINK-3982,1 52614U 22052S   22239.58334491  .00038931  00000-0  24514-2 0  9996,2 52614  53.2134 300.6334 0001618  55.3160 204.0490 15.08830128  1302,6917.911,95.438,540.895,538.656,0.0
52614.0,STARLINK-3982,PAYLOAD,2022-08-27 22:00:00,15.08859649,0.0001486,53.2131,299.1354,61.1653,209.802,-0.001295,-0.0002085,0.0,0 STARLINK-3982,1 52614U 22052S   22239.91667824 -.00020850  00000-0 -12950-2 0  9996,2 52614  53.2131 299.1354 0001486  61.1653 209.8020 15.08859649  1309,6917.82,95.436,540.7130000000002,538.6569999999998,0.0
52614.0,STARLINK-3982,PAYLOAD,2022-08-28 14:00:01,15.08814079,0.0001702,53.2126,296.1439,58.0898,236.0954,0.0026814,0.00042615,0.0,0 STARLINK-3982,1 52614U 22052S   22240.58334491  .00042615  00000-0  26814-2 0  9997,2 52614  53.2126 296.1439 0001702  58.0898 236.0954 15.08814079  1307,6917.96,95.439,541.002,538.6469999999998,0.0
52614.0,STARLINK-3982,PAYLOAD,2022-08-28 20:00:01,15.08851397,0.0001601,53.2122,295.0203,61.5207,151.3442,-0.0019276,-0.00030845,0.0,0 STARLINK-3982,1 52614U 22052S   22240.83334491 -.00030845  00000-0 -19276-2 0  9993,2 52614  53.2122 295.0203 0001601  61.5207 151.3442 15.08851397 16784,6917.846,95.437,540.818,538.6030000000002,0.0
52614.0,STARLINK-3982,PAYLOAD,2022-08-28 22:00:00,15.08832809,0.0001561999999999,53.2124,294.6458,63.5051,242.2648,0.00034389,5.188e-05,0.0,0 STARLINK-3982,1 52614U 22052S   22240.91667824  .00005188  00000-0  34389-3 0  9994,2 52614  53.2124 294.6458 0001562  63.5051 242.2648 15.08832809  1305,6917.901999999999,95.438,540.8480000000002,538.687,0.0
52614.0,STARLINK-3982,PAYLOAD,2022-08-29 12:00:00,15.08810626,0.0001636,53.2128,292.0284,57.5996,178.4628,0.0003097,4.64e-05,0.0,0 STARLINK-3982,1 52614U 22052S   22241.50001157  .00004640  00000-0  30970-3 0  9995,2 52614  53.2128 292.0284 0001636  57.5996 178.4628 15.08810626 16881,6917.97,95.439,540.967,538.703,0.0
52614.0,STARLINK-3982,PAYLOAD,2022-08-29 14:00:01,15.08793706,0.0001612,53.2128,291.6543,56.2416,272.7172,0.0026466999999999,0.00042032,0.0,0 STARLINK-3982,1 52614U 22052S   22241.58334491  .00042032  00000-0  26467-2 0  9995,2 52614  53.2128 291.6543 0001612  56.2416 272.7172 15.08793706  1303,6918.022,95.44,541.002,538.7719999999998,0.0
52614.0,STARLINK-3982,PAYLOAD,2022-08-29 22:00:00,15.08809497,0.0001476999999999,53.2137,290.1561,61.7496,278.7746,0.00092952,0.00014524,0.0,0 STARLINK-3982,1 52614U 22052S   22241.91667824  .00014524  00000-0  92952-3 0  9999,2 52614  53.2137 290.1561 0001477  61.7496 278.7746 15.08809497  1303,6917.974,95.439,540.86,538.817,0.0
52614.0,STARLINK-3982,PAYLOAD,2022-08-30 14:00:01,15.08804681,0.0001629999999999,53.2134,287.1646,54.8055,308.8647,0.0026824,0.0004261999999999,0.0,0 STARLINK-3982,1 52614U 22052S   22242.58334491  .00042620  00000-0  26824-2 0  9996,2 52614  53.2134 287.1646 0001630  54.8055 308.8647 15.08804681  1300,6917.988,95.44,540.981,538.726,0.0
52614.0,STARLINK-3982,PAYLOAD,2022-08-30 20:00:01,15.08838024,0.0001548,53.2134,286.0408,58.2812,224.0641,-0.0016235,-0.00026032,0.0,0 STARLINK-3982,1 52614U 22052S   22242.83334491 -.00026032  00000-0 -16235-2 0  9990,2 52614  53.2134 286.0408 0001548  58.2812 224.0641 15.08838024 17084,6917.886,95.438,540.822,538.681,0.0
52614.0,STARLINK-3982,PAYLOAD,2022-08-30 22:00:00,15.08776534,0.000152,53.2152,285.6643,59.1357,316.1237,0.0081151,0.00131048,0.0,0 STARLINK-3982,1 52614U 22052S   22242.91667824  .00131048  00000-0  81151-2 0  9999,2 52614  53.2152 285.6643 0001520  59.1357 316.1237 15.08776534  1303,6918.074000000001,95.442,540.991,538.888,0.0
52614.0,STARLINK-3982,PAYLOAD,2022-08-31 14:00:01,15.08817311,0.0001701,53.2135,282.6749,53.3763,345.0451,0.0025985,0.00041284,0.0,0 STARLINK-3982,1 52614U 22052S   22243.58334491  .00041284  00000-0  25985-2 0  9999,2 52614  53.2135 282.6749 0001701  53.3763 345.0451 15.08817311  1304,6917.95,95.439,540.991,538.638,0.0
52614.0,STARLINK-3982,PAYLOAD,2022-08-31 22:00:00,15.08824147,0.0001569,53.2137,281.1764,59.5489,350.4694,0.0018755,0.00029674,0.0,0 STARLINK-3982,1 52614U 22052S   22243.91667824  .00029674  00000-0  18755-2 0  9991,2 52614  53.2137 281.1764 0001569  59.5489 350.4694 15.08824147  1306,6917.929,95.439,540.879,538.7080000000002,0.0
52614.0,STARLINK-3982,PAYLOAD,2022-09-01 04:00:01,15.08854465,0.000164,53.2139,280.0541,61.6188,267.1471,-0.00040292,-6.697e-05,0.0,0 STARLINK-3982,1 52614U 22052S   22244.16668981 -.00006697  00000-0 -40292-3 0  9998,2 52614  53.2139 280.0541 0001640  61.6188 267.1471 15.08854465 17297,6917.8359999999975,95.437,540.836,538.567,0.0
52614.0,STARLINK-3982,PAYLOAD,2022-09-01 14:00:01,15.08832957,0.0001778,53.2139,278.185,52.4661,20.8129,0.0024116,0.00038294,0.0,0 STARLINK-3982,1 52614U 22052S   22244.58335648  .00038294  00000-0  24116-2 0  9997,2 52614  53.2139 278.1850 0001778  52.4661  20.8129 15.08832957  1305,6917.901999999999,95.438,540.997,538.5369999999998,0.0
52614.0,STARLINK-3982,PAYLOAD,2022-09-01 22:00:00,15.08833248,0.0001621,53.2143,276.6867,58.807,26.0203,0.0021771,0.00034524,0.0,0 STARLINK-3982,1 52614U 22052S   22244.91667824  .00034524  00000-0  21771-2 0  9994,2 52614  53.2143 276.6867 0001621  58.8070  26.0203 15.08833248  1307,6917.901,95.438,540.887,538.645,0.0
52614.0,STARLINK-3982,PAYLOAD,2022-09-02 12:00:02,15.08818168,0.0001761,53.2146,274.0696,52.0504,323.163,0.0018204999999999,0.00028787,0.0,0 STARLINK-3982,1 52614U 22052S   22245.50002315  .00028787  00000-0  18205-2 0  9990,2 52614  53.2146 274.0696 0001761  52.0504 323.1630 15.08818168 17491,6917.946999999999,95.439,541.03,538.594,0.0
52614.0,STARLINK-3982,PAYLOAD,2022-09-02 14:00:01,15.0881997,0.0001739,53.2143,273.6953,49.8417,58.2044,0.0019275,0.00030505,0.0,0 STARLINK-3982,1 52614U 22052S   22245.58334491  .00030505  00000-0  19275-2 0  9990,2 52614  53.2143 273.6953 0001739  49.8417  58.2044 15.08819970  1301,6917.941999999999,95.439,541.01,538.604,0.0
52614.0,STARLINK-3982,PAYLOAD,2022-09-02 22:00:01,15.0881514,0.000156,53.2146,272.1971,56.8211,62.8802,0.0023965,0.00038033,0.0,0 STARLINK-3982,1 52614U 22052S   22245.91668981  .00038033  00000-0  23965-2 0  9996,2 52614  53.2146 272.1971 0001560  56.8211  62.8802 15.08815140  1308,6917.956,95.439,540.901,538.742,0.0
